HST                     
1 20580U 90037B   26183.72415951  .00007907  00000+0  24931-3 0  9992
2 20580  28.4736 334.3758 0001625 336.7387  23.3136 15.30934799790959
POLAR                   
1 23802U 96013A   26181.90122648  .00000200  00000+0  00000+0 0  9994
2 23802  79.8715 226.8903 6484175 208.6086  90.7324  1.29846086145031
SWAS                    
1 25560U 98071A   26183.52028291  .00002473  00000+0  15954-3 0  9994
2 25560  69.8938 187.9752 0008370 244.7551 115.2746 15.09694194499587
CXO                     
1 25867U 99040B   26185.24501744  .00000765  00000+0  00000+0 0  9995
2 25867  56.3727 116.2458 7810468 310.0498   0.5720  0.37797064 17382
XMM-NEWTON              
1 25989U 99066A   26181.31376484  .00000075  00000+0  00000+0 0  9997
2 25989  64.4187 282.8185 4670815  64.6474   0.0796  0.50127122 23075
TERRA                   
1 25994U 99068A   26183.84729775  .00000473  00000+0  10519-3 0  9992
2 25994  97.9447 232.7721 0002762 147.9475 327.8787 14.61115956411893
CLUSTER II-FM7 (SAMBA)  
1 26410U 00041A   26183.75752675  .00012787  00000+0  00000+0 0  9995
2 26410 149.8840  53.4423 9072869 270.8480 359.6360  0.44834504 20376
CLUSTER II-FM8 (TANGO)  
1 26464U 00045B   26181.94601251  .00015784  00000+0  00000+0 0  9990
2 26464 150.1096  54.2616 9074787 271.4997   2.3331  0.44420098 20376
ODIN                    
1 26702U 01007A   26183.37126976  .00265335  00000+0  12669-2 0  9995
2 26702  97.3774 225.3490 0005921 136.8623 223.3110 15.82090808391799
TIMED                   
1 26998U 01055B   26183.79759315  .00001134  00000+0  10645-3 0  9998
2 26998  74.0661 203.5865 0001872 313.7173  46.3856 14.95323974333156
CORIOLIS                
1 27640U 03001A   26183.91087116  .00000112  00000+0  73069-4 0  9998
2 27640  98.7127 190.5557 0014293 162.9872 197.1786 14.19949084216457
SORCE                   
1 27651U 03004A   26183.41436498  .00003096  00000+0  23161-3 0  9990
2 27651  39.9888 174.7952 0017066 165.6393 194.4889 15.03784070274197
MOST                    
1 27843U 03031D   26183.90975087  .00000066  00000+0  50397-4 0  9995
2 27843  98.7045 191.4161 0009359 200.8716 159.2080 14.21325654192945
SCISAT 1                
1 27858U 03036A   26183.62231588  .00000749  00000+0  10021-3 0  9993
2 27858  73.9295 140.6752 0007991 210.4938 149.5775 14.81465996233734
SWIFT                   
1 28485U 04047A   26183.89017719  .00057060  00000+0  44505-3 0  9992
2 28485  20.5532  63.6365 0000876 172.9585 187.0874 15.69884073189333
HINODE (SOLAR-B)        
1 29479U 06041A   26183.78747449  .00000859  00000+0  15592-3 0  9998
2 29479  98.0543 199.7098 0016218 235.7614 124.2056 14.68645022 57168
SHIJIAN-6 02A (SJ-6 02A)
1 29505U 06046A   26184.64754847  .00008093  00000+0  41121-3 0  9994
2 29505  97.6347 225.8385 0004690  87.0417 273.1352 15.17137431 74768
SHIJIAN-6 02B (SJ-6 02B)
1 29506U 06046B   26184.67464108  .00001409  00000+0  11370-3 0  9993
2 29506  97.7148 213.6315 0014863  13.1508 347.0101 15.01417545 73213
FGRST (GLAST)           
1 33053U 08029A   26183.15735134  .00003505  00000+0  12692-3 0  9997
2 33053  25.5819 100.5283 0008390 140.8430 219.2716 15.24014089998126
SDO                     
1 36395U 10005A   26183.25044652 -.00000081  00000+0  00000+0 0  9998
2 36395  34.6806  86.1151 0001496  53.7669 128.3250  1.00270409 60216
CRYOSAT 2               
1 36508U 10013A   26183.79529034  .00000139  00000+0  33828-4 0  9996
2 36508  92.0362 281.0959 0002197  96.2120 263.9338 14.51895328860340
X-SAT                   
1 37389U 11015C   26184.65355237 -.00000251  00000+0 -88977-4 0  9997
2 37389  98.3519 160.8934 0012947 298.2142  61.7731 14.25209721790025
GCOM-W1 (SHIZUKU)       
1 38337U 12025A   26183.81885197  .00000553  00000+0  13274-3 0  9993
2 38337  98.2022 124.1380 0001537  67.5581 313.1459 14.57139347751313
NUSTAR                  
1 38358U 12031A   26184.41675926  .00006434  00000+0  34234-3 0  9990
2 38358   6.0257 272.4026 0008020 345.1275 302.6786 15.08955677  1308
NEOSSAT                 
1 39089U 13009D   26183.74958829  .00000183  00000+0  77844-4 0  9999
2 39089  98.4183   3.4125 0010651 194.0208 166.0684 14.35832027698971
BRITE-AUSTRIA           
1 39091U 13009F   26183.74046976  .00000212  00000+0  86788-4 0  9993
2 39091  98.4001   2.7917 0009968 186.9933 173.1116 14.36548421699285
IRIS                    
1 39197U 13033A   26183.51850022  .00001178  00000+0  14096-3 0  9991
2 39197  97.9322  22.7472 0022948 268.9364  90.9222 14.85915926702654
HISAKI (SPRINT-A)       
1 39253U 13049A   26183.59514801  .00000084  00000+0  25847-4 0  9993
2 39253  29.7180 141.6729 0136878 141.7696 219.2672 13.55545850633516
CASSIOPE                
1 39265U 13055A   26183.76858226  .00043132 -37712-6  46565-3 0  9992
2 39265  80.9130  47.7795 0286651   9.9997 350.6769 15.26617871670045
STSAT-3                 
1 39422U 13066G   26184.69221993  .00001402  00000+0  10906-3 0  9993
2 39422  97.6216 154.3152 0009438 352.7965   7.3123 15.02841371686687
SWARM B                 
1 39451U 13067A   26184.36916648  .00004046  00000+0  14407-3 0  9995
2 39451  87.7454 337.3996 0002784  79.8252 280.3311 15.28653322685715
